STARLINK-1434           
1 45712U 20035BH  26068.24137979  .00054112  00000+0  20295-2 0  9995
2 45712  53.0547  22.1128 0005343  88.0400 272.1210 15.26724568319325
STARLINK-36113          
1 66982U 25288Z   26068.24506035  .00028263  00000+0  10333-2 0  9995
2 66982  42.9997  25.5880 0001041 268.0745  91.9988 15.27560673 15225
